[{"OBJECT_NAME":"STARLINK-6070","OBJECT_ID":"2023-078AM","EPOCH":"2026-03-09T22:00:01.999584","MEAN_MOTION":15.33868458,"ECCENTRICITY":0.00035577,"INCLINATION":70.001,"RA_OF_ASC_NODE":321.9382,"ARG_OF_PERICENTER":287.8141,"MEAN_ANOMALY":182.2971,"EPHEMERIS_TYPE":0,"CLASSIFICATION_TYPE":"U","NORAD_CAT_ID":56802,"ELEMENT_SET_NO":999,"REV_AT_EPOCH":575,"BSTAR":0.031099255,"MEAN_MOTION_DOT":0.0111992,"MEAN_MOTION_DDOT":0},{"OBJECT_NAME":"FLOCK 4BE-20","OBJECT_ID":"2024-149X","EPOCH":"2026-03-09T17:58:49.897632","MEAN_MOTION":15.35276915,"ECCENTRICITY":0.0002793,"INCLINATION":97.3741,"RA_OF_ASC_NODE":150.5436,"ARG_OF_PERICENTER":243.206,"MEAN_ANOMALY":116.8898,"EPHEMERIS_TYPE":0,"CLASSIFICATION_TYPE":"U","NORAD_CAT_ID":60489,"ELEMENT_SET_NO":999,"REV_AT_EPOCH":8694,"BSTAR":0.00046726619,"MEAN_MOTION_DOT":0.00015941,"MEAN_MOTION_DDOT":0}]
